0 FENGYUN 1C DEB
1 31534U 99025BXZ 13280.94585293  .00002184  00000-0  10902-2 0  1597
2 31534 098.9998 327.0596 0025277 311.8646 048.3212 14.17752465334567
0 FENGYUN 1C DEB
1 31534U 99025BXZ 13289.90849489  .00002212  00000-0  11046-2 0  1606
2 31534 099.0034 336.1838 0019667 291.3543 068.9749 14.17796556335837
0 FENGYUN 1C DEB
1 31534U 99025BXZ 13292.37835338  .00004266  00000-0  21069-2 0  1617
2 31534 099.0008 338.7048 0020321 292.1159 067.7858 14.17836728336183
0 FENGYUN 1C DEB
1 31534U 99025BXZ 13293.36632011  .00003177  00000-0  15729-2 0  1627
2 31534 098.9895 339.6805 0025692 295.3342 064.4887 14.17840462336323
0 FENGYUN 1C DEB
1 31534U 99025BXZ 13294.91883724  .00003433  00000-0  16999-2 0  1634
2 31534 099.0017 341.2753 0019757 280.4533 079.4986 14.17855723336540
